{"type": "FeatureCollection", "name": "Llobregat Express zone boundaries", "attribution": "Barcelona districts: Ajuntament de Barcelona, Open Data BCN, 20170706-districtes-barris, CC BY 4.0. Municipalities: Institut Cartogràfic i Geològic de Catalunya, divisions administratives 1:50,000, CC BY 4.0. Simplified to about 5 m.", "features": [{"type": "Feature", "properties": {"zone_id": "Z01", "name": "Ciutat Vella"}, "geometry": {"type": "MultiPolygon", "coordinates": [[[[2.183451, 41.390612], [2.181323, 41.392222], [2.179859, 41.391052], [2.17749, 41.390164], [2.175851, 41.388949], [2.173409, 41.388948], [2.172765, 41.388474], [2.17151, 41.387044], [2.171138, 41.386842], [2.170284, 41.385879], [2.169769, 41.385574], [2.169358, 41.38554], [2.164714, 41.38593], [2.164011, 41.385398], [2.163089, 41.378747], [2.167788, 41.375167], [2.167797, 41.374976], [2.169999, 41.374956], [2.175298, 41.374621], [2.175738, 41.374292], [2.175459, 41.373931], [2.175506, 41.373666], [2.175629, 41.373521], [2.175473, 41.373326], [2.176302, 41.372951], [2.177095, 41.372753], [2.177288, 41.372513], [2.182039, 41.370371], [2.183009, 41.371535], [2.182993, 41.371606], [2.178124, 41.373818], [2.178271, 41.374007], [2.177976, 41.374138], [2.182305, 41.379552], [2.18251, 41.37946], [2.183254, 41.37755], [2.181506, 41.375355], [2.181653, 41.374888], [2.182924, 41.374315], [2.183057, 41.374339], [2.184993, 41.376747], [2.18355, 41.380454], [2.184671, 41.380704], [2.185917, 41.38011], [2.186047, 41.379788], [2.185945, 41.379764], [2.186029, 41.379555], [2.186446, 41.379649], [2.187264, 41.377599], [2.186436, 41.377411], [2.186442, 41.377335], [2.187197, 41.377227], [2.186895, 41.37601], [2.186602, 41.37605], [2.186835, 41.375907], [2.18688, 41.375953], [2.186831, 41.375688], [2.186927, 41.375625], [2.185307, 41.374976], [2.18473, 41.375028], [2.184721, 41.374973], [2.185271, 41.374922], [2.185208, 41.374531], [2.184548, 41.374638], [2.184535, 41.374584], [2.185198, 41.374476], [2.185137, 41.374083], [2.184492, 41.374222], [2.18447, 41.374168], [2.185129, 41.374027], [2.185066, 41.373638], [2.184474, 41.373814], [2.184447, 41.373763], [2.185058, 41.373581], [2.185004, 41.373233], [2.184423, 41.37341], [2.184392, 41.373359], [2.184987, 41.373135], [2.18493, 41.372789], [2.184302, 41.373033], [2.184264, 41.372987], [2.184932, 41.372674], [2.184234, 41.372951], [2.184892, 41.372646], [2.185612, 41.372612], [2.185934, 41.374532], [2.186661, 41.374815], [2.187489, 41.374557], [2.187119, 41.373874], [2.186802, 41.37356], [2.187092, 41.373788], [2.186819, 41.373287], [2.187546, 41.373156], [2.187403, 41.372278], [2.18592, 41.372405], [2.185797, 41.371693], [2.186164, 41.371654], [2.186152, 41.371588], [2.185792, 41.371617], [2.185768, 41.371209], [2.187214, 41.371103], [2.187143, 41.370644], [2.18471, 41.3709], [2.184612, 41.370845], [2.184579, 41.370476], [2.184964, 41.370416], [2.184624, 41.368605], [2.184705, 41.368535], [2.185192, 41.368482], [2.185147, 41.368104], [2.185248, 41.368145], [2.185954, 41.368027], [2.185988, 41.368317], [2.185861, 41.368448], [2.186174, 41.370126], [2.187202, 41.370007], [2.186681, 41.366912], [2.185364, 41.365358], [2.185133, 41.365687], [2.184934, 41.365631], [2.184936, 41.365256], [2.185132, 41.365296], [2.185313, 41.364751], [2.185608, 41.364749], [2.185973, 41.364225], [2.186482, 41.364037], [2.186649, 41.364045], [2.186778, 41.364179], [2.186155, 41.364407], [2.185871, 41.364885], [2.18684, 41.365673], [2.187265, 41.366251], [2.18746, 41.366757], [2.187558, 41.366784], [2.187896, 41.367231], [2.18806, 41.367221], [2.189245, 41.366744], [2.189302, 41.366638], [2.187592, 41.364018], [2.187414, 41.363575], [2.187263, 41.363421], [2.186872, 41.363409], [2.186689, 41.363288], [2.18668, 41.363217], [2.187163, 41.363079], [2.186647, 41.361624], [2.185281, 41.358113], [2.185122, 41.358145], [2.185037, 41.357978], [2.184662, 41.35806], [2.184599, 41.357903], [2.185361, 41.357734], [2.186849, 41.361589], [2.187087, 41.36154], [2.187505, 41.362794], [2.187729, 41.363083], [2.187759, 41.363471], [2.191877, 41.369857], [2.191794, 41.369982], [2.19157, 41.370037], [2.191112, 41.369395], [2.190347, 41.369515], [2.189846, 41.369928], [2.189491, 41.370689], [2.18951, 41.371562], [2.189686, 41.37241], [2.190237, 41.373867], [2.190863, 41.375191], [2.191298, 41.375836], [2.19195, 41.376455], [2.192769, 41.376842], [2.193442, 41.376918], [2.193201, 41.377078], [2.192868, 41.377636], [2.192872, 41.378403], [2.193417, 41.379584], [2.193947, 41.380212], [2.194505, 41.380709], [2.194979, 41.380969], [2.196531, 41.38041], [2.196636, 41.380252], [2.196928, 41.380297], [2.196927, 41.38051], [2.196826, 41.380573], [2.196648, 41.380519], [2.195352, 41.380987], [2.195681, 41.381522], [2.196961, 41.381066], [2.197024, 41.380955], [2.197166, 41.380965], [2.197317, 41.381109], [2.197218, 41.381229], [2.196976, 41.38121], [2.195462, 41.381744], [2.195569, 41.382521], [2.195934, 41.383194], [2.19656, 41.383825], [2.197224, 41.384213], [2.198194, 41.38448], [2.198315, 41.384341], [2.19823, 41.384703], [2.198604, 41.384997], [2.199083, 41.384638], [2.199722, 41.384987], [2.19642, 41.387466], [2.195949, 41.387538], [2.195755, 41.387852], [2.193573, 41.38624], [2.18677, 41.391393], [2.184586, 41.389756], [2.183451, 41.390612]]]]}}, {"type": "Feature", "properties": {"zone_id": "Z02", "name": "Eixample"}, "geometry": {"type": "MultiPolygon", "coordinates": [[[[2.186895, 41.401654], [2.184527, 41.403452], [2.185669, 41.404306], [2.175468, 41.412036], [2.168659, 41.406929], [2.172043, 41.404369], [2.167353, 41.400855], [2.166218, 41.40171], [2.159226, 41.396461], [2.144978, 41.392855], [2.14499, 41.392651], [2.144835, 41.392458], [2.144583, 41.392368], [2.144344, 41.392384], [2.143649, 41.390501], [2.142751, 41.386603], [2.142303, 41.380718], [2.148236, 41.376232], [2.149899, 41.375074], [2.154025, 41.375003], [2.167797, 41.374976], [2.167788, 41.375167], [2.163089, 41.378747], [2.164011, 41.385398], [2.164714, 41.38593], [2.169358, 41.38554], [2.169769, 41.385574], [2.170284, 41.385879], [2.171138, 41.386842], [2.17151, 41.387044], [2.172765, 41.388474], [2.173409, 41.388948], [2.175851, 41.388949], [2.17749, 41.390164], [2.179859, 41.391052], [2.181323, 41.392222], [2.182381, 41.39142], [2.186732, 41.394639], [2.186664, 41.394831], [2.186865, 41.394968], [2.186895, 41.401654]]]]}}, {"type": "Feature", "properties": {"zone_id": "Z03", "name": "Sants-Montjuïc"}, "geometry": {"type": "MultiPolygon", "coordinates": [[[[2.175209, 41.349839], [2.175194, 41.350232], [2.175411, 41.35084], [2.175761, 41.351136], [2.176043, 41.351588], [2.175994, 41.351788], [2.176093, 41.352307], [2.17642, 41.352645], [2.178002, 41.355324], [2.178288, 41.355637], [2.179922, 41.35811], [2.180417, 41.359031], [2.181107, 41.359992], [2.18165, 41.361024], [2.183036, 41.36316], [2.183475, 41.36332], [2.183078, 41.364864], [2.183281, 41.364909], [2.18301, 41.365219], [2.182859, 41.365155], [2.182901, 41.364855], [2.182402, 41.364749], [2.182322, 41.364632], [2.172423, 41.349289], [2.172102, 41.349404], [2.171902, 41.349009], [2.171869, 41.348853], [2.17222, 41.34881], [2.171291, 41.344523], [2.171486, 41.344501], [2.171564, 41.344702], [2.171691, 41.344723], [2.172341, 41.344193], [2.171523, 41.340316], [2.171612, 41.340254], [2.172088, 41.340232], [2.172129, 41.340168], [2.171779, 41.338663], [2.170994, 41.338756], [2.170951, 41.338559], [2.171107, 41.338332], [2.171092, 41.338187], [2.170537, 41.335664], [2.170548, 41.335526], [2.170715, 41.33538], [2.170736, 41.335127], [2.171067, 41.335079], [2.170955, 41.334099], [2.170144, 41.334192], [2.170272, 41.33456], [2.170176, 41.334622], [2.17006, 41.334588], [2.169973, 41.334236], [2.170103, 41.334064], [2.17114, 41.333919], [2.169355, 41.326371], [2.17241, 41.317449], [2.172287, 41.317334], [2.172305, 41.317191], [2.17241, 41.317084], [2.17261, 41.317039], [2.172854, 41.317133], [2.172937, 41.317346], [2.169888, 41.326395], [2.171948, 41.335172], [2.172146, 41.336535], [2.17233, 41.337079], [2.172342, 41.337464], [2.172564, 41.337947], [2.172576, 41.338423], [2.172976, 41.339925], [2.173198, 41.341265], [2.173645, 41.342822], [2.173656, 41.343344], [2.173908, 41.34435], [2.17399, 41.344398], [2.173929, 41.34452], [2.174213, 41.345593], [2.174169, 41.345775], [2.174449, 41.346847], [2.174546, 41.346874], [2.174486, 41.346988], [2.174623, 41.34718], [2.174664, 41.347829], [2.174905, 41.348468], [2.174861, 41.348789], [2.175112, 41.349808], [2.175209, 41.349839]]], [[[2.148236, 41.376232], [2.142303, 41.380718], [2.142642, 41.385617], [2.140707, 41.384171], [2.139057, 41.383216], [2.137613, 41.382571], [2.134808, 41.381532], [2.131667, 41.380601], [2.130837, 41.380271], [2.127582, 41.378561], [2.122703, 41.375674], [2.121787, 41.375695], [2.122081, 41.375415], [2.123241, 41.37485], [2.123761, 41.374341], [2.124267, 41.37354], [2.125454, 41.372889], [2.127301, 41.371626], [2.128136, 41.371181], [2.12923, 41.370726], [2.130415, 41.369735], [2.131041, 41.368927], [2.131631, 41.367972], [2.132031, 41.366778], [2.132885, 41.365538], [2.132868, 41.365361], [2.133656, 41.363615], [2.13543, 41.362257], [2.134684, 41.361149], [2.132967, 41.359853], [2.13331, 41.359381], [2.132852, 41.359192], [2.133365, 41.358484], [2.133216, 41.358427], [2.133194, 41.357417], [2.13297, 41.356497], [2.133188, 41.356177], [2.13207, 41.355744], [2.1339, 41.35306], [2.133771, 41.353005], [2.135042, 41.351301], [2.137422, 41.348774], [2.137074, 41.348652], [2.136786, 41.348365], [2.132119, 41.346769], [2.128092, 41.345298], [2.111202, 41.3397], [2.100527, 41.336042], [2.10225, 41.335351], [2.103135, 41.334904], [2.104789, 41.333931], [2.10583, 41.333162], [2.107654, 41.331745], [2.108749, 41.33073], [2.112302, 41.326117], [2.114039, 41.324881], [2.115653, 41.32389], [2.117043, 41.323321], [2.118901, 41.322734], [2.123135, 41.321807], [2.128519, 41.320961], [2.130712, 41.320772], [2.139769, 41.321115], [2.143743, 41.320944], [2.145742, 41.320751], [2.149728, 41.320758], [2.149857, 41.320683], [2.150816, 41.321674], [2.151727, 41.323154], [2.152265, 41.322964], [2.152351, 41.323076], [2.152897, 41.3244], [2.153181, 41.325486], [2.153637, 41.326646], [2.153877, 41.327472], [2.153825, 41.327521], [2.153963, 41.327665], [2.154221, 41.327557], [2.15404, 41.327269], [2.154213, 41.327214], [2.154495, 41.327466], [2.1543, 41.32786], [2.158845, 41.327835], [2.158971, 41.327763], [2.158723, 41.327281], [2.158899, 41.327139], [2.159202, 41.327221], [2.159732, 41.328238], [2.161099, 41.331587], [2.163599, 41.337233], [2.163746, 41.337368], [2.163684, 41.337461], [2.163914, 41.337972], [2.1651, 41.337876], [2.165023, 41.337613], [2.165178, 41.337588], [2.165389, 41.338314], [2.165235, 41.338339], [2.165155, 41.338073], [2.164075, 41.338322], [2.164937, 41.340245], [2.165119, 41.340205], [2.165147, 41.340269], [2.165601, 41.340157], [2.165729, 41.340613], [2.165635, 41.340629], [2.165528, 41.340253], [2.165178, 41.34034], [2.165288, 41.340591], [2.165152, 41.340582], [2.165114, 41.340673], [2.16532, 41.341136], [2.165423, 41.341178], [2.166137, 41.341069], [2.166248, 41.341228], [2.166166, 41.341325], [2.165749, 41.341322], [2.165089, 41.341429], [2.164907, 41.341521], [2.164212, 41.341545], [2.163624, 41.341668], [2.163661, 41.34185], [2.163945, 41.341843], [2.164069, 41.342131], [2.164205, 41.342108], [2.164241, 41.342227], [2.162529, 41.342501], [2.162495, 41.342382], [2.162645, 41.342359], [2.162593, 41.342074], [2.162836, 41.342006], [2.162761, 41.3418], [2.161049, 41.342084], [2.161179, 41.342592], [2.15948, 41.343252], [2.159207, 41.343246], [2.15825, 41.342586], [2.157871, 41.342589], [2.157081, 41.342234], [2.157153, 41.342324], [2.157088, 41.342406], [2.156849, 41.342294], [2.156961, 41.342177], [2.156832, 41.34212], [2.156786, 41.342178], [2.156799, 41.342107], [2.156233, 41.34182], [2.15555, 41.340814], [2.154818, 41.339506], [2.154381, 41.339034], [2.154399, 41.338831], [2.15409, 41.338312], [2.153786, 41.337821], [2.153607, 41.337791], [2.153666, 41.337627], [2.152933, 41.336432], [2.152755, 41.336401], [2.152743, 41.336124], [2.152088, 41.335054], [2.151958, 41.335054], [2.151879, 41.334963], [2.151934, 41.334802], [2.151281, 41.333751], [2.151066, 41.333659], [2.151157, 41.33358], [2.151115, 41.333487], [2.150502, 41.33253], [2.150305, 41.332415], [2.15034, 41.332234], [2.149743, 41.331331], [2.149553, 41.331208], [2.149528, 41.330931], [2.148913, 41.329998], [2.148681, 41.330018], [2.145902, 41.330988], [2.146085, 41.331286], [2.145849, 41.331371], [2.14728, 41.333697], [2.144279, 41.334747], [2.145314, 41.336427], [2.145628, 41.336324], [2.145613, 41.336551], [2.149568, 41.336676], [2.150924, 41.346483], [2.15187, 41.346408], [2.15181, 41.34572], [2.151957, 41.346401], [2.152741, 41.34634], [2.152642, 41.345628], [2.153007, 41.3456], [2.152854, 41.344493], [2.153218, 41.344463], [2.153006, 41.342943], [2.153113, 41.342735], [2.153308, 41.342701], [2.163239, 41.348369], [2.163143, 41.348464], [2.163041, 41.348451], [2.163378, 41.348641], [2.163696, 41.348521], [2.163563, 41.348396], [2.166907, 41.347144], [2.173051, 41.356503], [2.169901, 41.358647], [2.170931, 41.360251], [2.175448, 41.358631], [2.176739, 41.360553], [2.173691, 41.361646], [2.173844, 41.36188], [2.17348, 41.362035], [2.175983, 41.365324], [2.17928, 41.36412], [2.178993, 41.363678], [2.179314, 41.36356], [2.180753, 41.365837], [2.179827, 41.366221], [2.179675, 41.365979], [2.17652, 41.367132], [2.176689, 41.367398], [2.176393, 41.367423], [2.176682, 41.369386], [2.177039, 41.369357], [2.177109, 41.369821], [2.176752, 41.36985], [2.17709, 41.372144], [2.177376, 41.372119], [2.177622, 41.372361], [2.177288, 41.372513], [2.177095, 41.372753], [2.176302, 41.372951], [2.175473, 41.373326], [2.175629, 41.373521], [2.175506, 41.373666], [2.175459, 41.373931], [2.175738, 41.374292], [2.175298, 41.374621], [2.169999, 41.374956], [2.154025, 41.375003], [2.149899, 41.375074], [2.148236, 41.376232]]]]}}, {"type": "Feature", "properties": {"zone_id": "Z04", "name": "Les Corts"}, "geometry": {"type": "MultiPolygon", "coordinates": [[[[2.103418, 41.401102], [2.102926, 41.401097], [2.102833, 41.40052], [2.101681, 41.39915], [2.100496, 41.398551], [2.100445, 41.398003], [2.100147, 41.397564], [2.099925, 41.396812], [2.099387, 41.396272], [2.099021, 41.395412], [2.098509, 41.394983], [2.098087, 41.394253], [2.097792, 41.393957], [2.098038, 41.393603], [2.098051, 41.393429], [2.099128, 41.392811], [2.099796, 41.392005], [2.099856, 41.39079], [2.100018, 41.39014], [2.100249, 41.389687], [2.100257, 41.389099], [2.10059, 41.38841], [2.100705, 41.388264], [2.101167, 41.388006], [2.102291, 41.387518], [2.102013, 41.387346], [2.101114, 41.387081], [2.102029, 41.386246], [2.102263, 41.386118], [2.10261, 41.38575], [2.102686, 41.385552], [2.102893, 41.385487], [2.103394, 41.384553], [2.103435, 41.384368], [2.102733, 41.383627], [2.102254, 41.383422], [2.101182, 41.383176], [2.101932, 41.381343], [2.102656, 41.380596], [2.103179, 41.38028], [2.103862, 41.380065], [2.105499, 41.378877], [2.105983, 41.379234], [2.108141, 41.378136], [2.109065, 41.377038], [2.109289, 41.376429], [2.109306, 41.375945], [2.117801, 41.375776], [2.121441, 41.377986], [2.121645, 41.377342], [2.121619, 41.376112], [2.121787, 41.375695], [2.122703, 41.375674], [2.127582, 41.378561], [2.130837, 41.380271], [2.131667, 41.380601], [2.134808, 41.381532], [2.137613, 41.382571], [2.139057, 41.383216], [2.140707, 41.384171], [2.142642, 41.385617], [2.14294, 41.387678], [2.143529, 41.390043], [2.143802, 41.391027], [2.144344, 41.392384], [2.144054, 41.392575], [2.138767, 41.391238], [2.130669, 41.392468], [2.129978, 41.392684], [2.129333, 41.392383], [2.12227, 41.390622], [2.120899, 41.390091], [2.120552, 41.390804], [2.120013, 41.391276], [2.11937, 41.391571], [2.118007, 41.391924], [2.117561, 41.392224], [2.118184, 41.392877], [2.118358, 41.393197], [2.118477, 41.39376], [2.118294, 41.394588], [2.118012, 41.394958], [2.11763, 41.395241], [2.115611, 41.395875], [2.113126, 41.397259], [2.112676, 41.397], [2.111937, 41.396364], [2.110913, 41.395828], [2.109943, 41.395174], [2.109617, 41.395507], [2.109498, 41.395913], [2.109746, 41.396304], [2.109698, 41.396577], [2.109348, 41.397035], [2.109306, 41.397224], [2.108953, 41.397554], [2.108651, 41.39845], [2.108287, 41.398644], [2.107738, 41.399233], [2.107353, 41.399368], [2.107072, 41.399801], [2.106633, 41.400059], [2.10539, 41.400601], [2.103418, 41.401102]]]]}}, {"type": "Feature", "properties": {"zone_id": "Z05", "name": "Sarrià-Sant Gervasi"}, "geometry": {"type": "MultiPolygon", "coordinates": [[[[2.05897, 41.43542], [2.058814, 41.435557], [2.057669, 41.435806], [2.057727, 41.435504], [2.057482, 41.434608], [2.057906, 41.433887], [2.057597, 41.433446], [2.057737, 41.433293], [2.057854, 41.432603], [2.058417, 41.431295], [2.058448, 41.429595], [2.058447, 41.429185], [2.057992, 41.428272], [2.05769, 41.427899], [2.057582, 41.427512], [2.057665, 41.42642], [2.057473, 41.426215], [2.056791, 41.425814], [2.055868, 41.425484], [2.053257, 41.425007], [2.052886, 41.424822], [2.052429, 41.424436], [2.052333, 41.42423], [2.05248, 41.424159], [2.052433, 41.423923], [2.052516, 41.423817], [2.053161, 41.423664], [2.05392, 41.422867], [2.05416, 41.422733], [2.054477, 41.422702], [2.054644, 41.422415], [2.055545, 41.422272], [2.056219, 41.421703], [2.056465, 41.421358], [2.056377, 41.420478], [2.056571, 41.420251], [2.056633, 41.419749], [2.056865, 41.419096], [2.057082, 41.418908], [2.057071, 41.418743], [2.057301, 41.418409], [2.057068, 41.417798], [2.056897, 41.416852], [2.056963, 41.416555], [2.056899, 41.415999], [2.056226, 41.415635], [2.055944, 41.41516], [2.054641, 41.413949], [2.054942, 41.412969], [2.054989, 41.412182], [2.056852, 41.41033], [2.057438, 41.410334], [2.058765, 41.410646], [2.058996, 41.410985], [2.059074, 41.412259], [2.058559, 41.412643], [2.058595, 41.412748], [2.05958, 41.412799], [2.060187, 41.412683], [2.060778, 41.412727], [2.061493, 41.412946], [2.061565, 41.413111], [2.061951, 41.413431], [2.062048, 41.413665], [2.063496, 41.41355], [2.064158, 41.414287], [2.064377, 41.415029], [2.064903, 41.416093], [2.06499, 41.416632], [2.064287, 41.417841], [2.06458, 41.418026], [2.065666, 41.418128], [2.067242, 41.418082], [2.067572, 41.418294], [2.068115, 41.418461], [2.070033, 41.418692], [2.070485, 41.418812], [2.070171, 41.420977], [2.069795, 41.421766], [2.069874, 41.422703], [2.069543, 41.423052], [2.069398, 41.423354], [2.069674, 41.425176], [2.067656, 41.425992], [2.067045, 41.426267], [2.067016, 41.426358], [2.067116, 41.426815], [2.066814, 41.42727], [2.066818, 41.427388], [2.067001, 41.427741], [2.067445, 41.428159], [2.067495, 41.428642], [2.067866, 41.428797], [2.067883, 41.429008], [2.067734, 41.429376], [2.067814, 41.429545], [2.067396, 41.429535], [2.066412, 41.429809], [2.065969, 41.43008], [2.065537, 41.429904], [2.064582, 41.429915], [2.063662, 41.431128], [2.063463, 41.43207], [2.063311, 41.432322], [2.063317, 41.432904], [2.063099, 41.432948], [2.062908, 41.433583], [2.06212, 41.433358], [2.06002, 41.433955], [2.059499, 41.434478], [2.059317, 41.435066], [2.059358, 41.435388], [2.05897, 41.43542]]], [[[2.072555, 41.435469], [2.07334, 41.436448], [2.073028, 41.436607], [2.072613, 41.436555], [2.071768, 41.436302], [2.07106, 41.435052], [2.070938, 41.434399], [2.071475, 41.433078], [2.073122, 41.430665], [2.074114, 41.430207], [2.074532, 41.429895], [2.075478, 41.429552], [2.075831, 41.429232], [2.076475, 41.428903], [2.076617, 41.428709], [2.073818, 41.427932], [2.072992, 41.427523], [2.073228, 41.427416], [2.07295, 41.426289], [2.072544, 41.425783], [2.072774, 41.425494], [2.072705, 41.425153], [2.073188, 41.424944], [2.07454, 41.42478], [2.075159, 41.424996], [2.075705, 41.424925], [2.07647, 41.425042], [2.077139, 41.425048], [2.077605, 41.424943], [2.078118, 41.424942], [2.079234, 41.424545], [2.079679, 41.424469], [2.080231, 41.424486], [2.080544, 41.424579], [2.080588, 41.424412], [2.080962, 41.424004], [2.080589, 41.424059], [2.080361, 41.423987], [2.080224, 41.423728], [2.080242, 41.423362], [2.080069, 41.423065], [2.077908, 41.422478], [2.076061, 41.422308], [2.07534, 41.421977], [2.076953, 41.421023], [2.077032, 41.420806], [2.076959, 41.41996], [2.076831, 41.419533], [2.077515, 41.419026], [2.07765, 41.418598], [2.078758, 41.418864], [2.078604, 41.418573], [2.078769, 41.418396], [2.078648, 41.418004], [2.079032, 41.417601], [2.079283, 41.416747], [2.079809, 41.416246], [2.079744, 41.415659], [2.079457, 41.415568], [2.079044, 41.415133], [2.079123, 41.414978], [2.079067, 41.414936], [2.078585, 41.414979], [2.077339, 41.414628], [2.07731, 41.414441], [2.076557, 41.413873], [2.076304, 41.41355], [2.075974, 41.412787], [2.076047, 41.412728], [2.075545, 41.412391], [2.074541, 41.412202], [2.074134, 41.411885], [2.07344, 41.411861], [2.073061, 41.411426], [2.072599, 41.41118], [2.07228, 41.411111], [2.072137, 41.410955], [2.072103, 41.410625], [2.071439, 41.409187], [2.071351, 41.408807], [2.071962, 41.407893], [2.072062, 41.407545], [2.071524, 41.407187], [2.070317, 41.40723], [2.07, 41.407028], [2.070502, 41.406041], [2.071466, 41.40473], [2.072058, 41.404094], [2.072192, 41.403464], [2.072792, 41.403158], [2.073752, 41.403296], [2.074894, 41.402909], [2.075607, 41.403178], [2.076407, 41.403193], [2.077775, 41.402867], [2.078593, 41.403121], [2.079133, 41.403736], [2.08012, 41.404547], [2.080313, 41.40515], [2.080281, 41.405662], [2.080422, 41.405963], [2.080674, 41.406055], [2.080975, 41.40639], [2.081833, 41.406724], [2.082452, 41.407081], [2.082792, 41.407763], [2.083543, 41.408279], [2.083638, 41.408543], [2.084135, 41.408938], [2.084133, 41.409355], [2.085456, 41.409714], [2.086001, 41.409712], [2.086696, 41.409533], [2.087592, 41.40893], [2.088669, 41.40861], [2.0896, 41.40844], [2.091725, 41.408193], [2.092664, 41.40827], [2.094232, 41.407947], [2.095652, 41.40785], [2.096224, 41.407967], [2.096655, 41.408241], [2.096946, 41.408805], [2.097324, 41.409107], [2.097961, 41.409098], [2.099003, 41.408862], [2.100277, 41.408414], [2.100607, 41.408368], [2.101021, 41.407656], [2.101602, 41.406996], [2.101812, 41.405119], [2.102865, 41.404816], [2.10359, 41.404403], [2.103708, 41.404235], [2.103825, 41.403289], [2.103546, 41.402601], [2.103153, 41.40205], [2.103176, 41.401651], [2.102926, 41.401097], [2.103516, 41.401086], [2.105385, 41.400603], [2.107072, 41.399801], [2.107353, 41.399368], [2.107738, 41.399233], [2.108273, 41.398657], [2.108651, 41.39845], [2.10875, 41.398311], [2.108712, 41.398195], [2.108953, 41.397554], [2.109306, 41.397224], [2.109348, 41.397035], [2.109698, 41.396577], [2.109746, 41.396304], [2.109498, 41.395913], [2.109617, 41.395507], [2.109943, 41.395174], [2.110913, 41.395828], [2.111937, 41.396364], [2.112676, 41.397], [2.113126, 41.397259], [2.115611, 41.395875], [2.11763, 41.395241], [2.118012, 41.394958], [2.118294, 41.394588], [2.118477, 41.39376], [2.118358, 41.393197], [2.118184, 41.392877], [2.117561, 41.392224], [2.118007, 41.391924], [2.11937, 41.391571], [2.120013, 41.391276], [2.120552, 41.390804], [2.120899, 41.390091], [2.12227, 41.390622], [2.129333, 41.392383], [2.129978, 41.392684], [2.130669, 41.392468], [2.138767, 41.391238], [2.144054, 41.392575], [2.144344, 41.392384], [2.144657, 41.392382], [2.144939, 41.392554], [2.144978, 41.392855], [2.155711, 41.395571], [2.154931, 41.396777], [2.151226, 41.400492], [2.151155, 41.401492], [2.149923, 41.403208], [2.150028, 41.403781], [2.150326, 41.40414], [2.150374, 41.404367], [2.149971, 41.405509], [2.150067, 41.405995], [2.149027, 41.40689], [2.148791, 41.406726], [2.148965, 41.406584], [2.148914, 41.406549], [2.148385, 41.406812], [2.148497, 41.406892], [2.148376, 41.406989], [2.148659, 41.407188], [2.147668, 41.408001], [2.146075, 41.409967], [2.145601, 41.410825], [2.145361, 41.411053], [2.144775, 41.411341], [2.140956, 41.411727], [2.140698, 41.411839], [2.137957, 41.413974], [2.137025, 41.414459], [2.136152, 41.415223], [2.136063, 41.415589], [2.136315, 41.415988], [2.134321, 41.417708], [2.133675, 41.418011], [2.132785, 41.4183], [2.132278, 41.418578], [2.131245, 41.418235], [2.130545, 41.418285], [2.13022, 41.418665], [2.130059, 41.419112], [2.130086, 41.419647], [2.129503, 41.419437], [2.129071, 41.419597], [2.128914, 41.419867], [2.128758, 41.419932], [2.128405, 41.419707], [2.128062, 41.419728], [2.127453, 41.419375], [2.127462, 41.41925], [2.128024, 41.418948], [2.128167, 41.418763], [2.128168, 41.41866], [2.127908, 41.418417], [2.12791, 41.418288], [2.128616, 41.41781], [2.128928, 41.417422], [2.125316, 41.419007], [2.121163, 41.42071], [2.121505, 41.420869], [2.121512, 41.421124], [2.121402, 41.421349], [2.120883, 41.421877], [2.120427, 41.422722], [2.120545, 41.423114], [2.12045, 41.423747], [2.120515, 41.424108], [2.121344, 41.425467], [2.121347, 41.42562], [2.121215, 41.425783], [2.121267, 41.425832], [2.121183, 41.425887], [2.120753, 41.425935], [2.119559, 41.42574], [2.119282, 41.425868], [2.118935, 41.425813], [2.117746, 41.426218], [2.117105, 41.426269], [2.116322, 41.426662], [2.115661, 41.426777], [2.115461, 41.426877], [2.115417, 41.427494], [2.115083, 41.427817], [2.113324, 41.428504], [2.11294, 41.42836], [2.112337, 41.428613], [2.111864, 41.42835], [2.111015, 41.428284], [2.110149, 41.428476], [2.109713, 41.428417], [2.109201, 41.428728], [2.109006, 41.428751], [2.10772, 41.428635], [2.106679, 41.428633], [2.106341, 41.428503], [2.105854, 41.428564], [2.105745, 41.428784], [2.105306, 41.428839], [2.104363, 41.428529], [2.103595, 41.42811], [2.10322, 41.428074], [2.102706, 41.428432], [2.10211, 41.428686], [2.101842, 41.429088], [2.101146, 41.429788], [2.0999, 41.430111], [2.099146, 41.430122], [2.098725, 41.43089], [2.098941, 41.431699], [2.097085, 41.432501], [2.096069, 41.433272], [2.095489, 41.432854], [2.094713, 41.432759], [2.094072, 41.43211], [2.093929, 41.431713], [2.0936, 41.431269], [2.093341, 41.430983], [2.092945, 41.430729], [2.092708, 41.430312], [2.092497, 41.430165], [2.092428, 41.429816], [2.092288, 41.429613], [2.091752, 41.429487], [2.091428, 41.429243], [2.091117, 41.429177], [2.090835, 41.428813], [2.090426, 41.428644], [2.090033, 41.428939], [2.089206, 41.429214], [2.088977, 41.429144], [2.08879, 41.428622], [2.086157, 41.428915], [2.085576, 41.42907], [2.085369, 41.429316], [2.08389, 41.429973], [2.083704, 41.430165], [2.083853, 41.430418], [2.083418, 41.430853], [2.082611, 41.430785], [2.082451, 41.431138], [2.082582, 41.431481], [2.082318, 41.431629], [2.082037, 41.43167], [2.081437, 41.431576], [2.081108, 41.431201], [2.081246, 41.430731], [2.081056, 41.430646], [2.08077, 41.430639], [2.080152, 41.43088], [2.08026, 41.431559], [2.080198, 41.43174], [2.07997, 41.43189], [2.078165, 41.432035], [2.077361, 41.432394], [2.076714, 41.43285], [2.075294, 41.432962], [2.074845, 41.433444], [2.075066, 41.433871], [2.075131, 41.434504], [2.074772, 41.435302], [2.073949, 41.435348], [2.073187, 41.435212], [2.072832, 41.435459], [2.072555, 41.435469]]]]}}, {"type": "Feature", "properties": {"zone_id": "Z06", "name": "Gràcia"}, "geometry": {"type": "MultiPolygon", "coordinates": [[[[2.136285, 41.423627], [2.136157, 41.42377], [2.136148, 41.424256], [2.13598, 41.424545], [2.135106, 41.42488], [2.135048, 41.424704], [2.135361, 41.424377], [2.135343, 41.424247], [2.134783, 41.423576], [2.134648, 41.42361], [2.134567, 41.423511], [2.134214, 41.42278], [2.134281, 41.422577], [2.134777, 41.422164], [2.134706, 41.42213], [2.133554, 41.422335], [2.132814, 41.422587], [2.131903, 41.422527], [2.13058, 41.42275], [2.12995, 41.422566], [2.130477, 41.421961], [2.131265, 41.421332], [2.131301, 41.421053], [2.132203, 41.419934], [2.132068, 41.419801], [2.131006, 41.419393], [2.130822, 41.419505], [2.130583, 41.419916], [2.13007, 41.420076], [2.129908, 41.419992], [2.129668, 41.419586], [2.129317, 41.41952], [2.129596, 41.419434], [2.129995, 41.419657], [2.130129, 41.419605], [2.130059, 41.419112], [2.13022, 41.418665], [2.130545, 41.418285], [2.131245, 41.418235], [2.132278, 41.418578], [2.132785, 41.4183], [2.133675, 41.418011], [2.134321, 41.417708], [2.136315, 41.415988], [2.136063, 41.415589], [2.136152, 41.415223], [2.137025, 41.414459], [2.137957, 41.413974], [2.140818, 41.411771], [2.144775, 41.411341], [2.145361, 41.411053], [2.145601, 41.410825], [2.146075, 41.409967], [2.147668, 41.408001], [2.148659, 41.407188], [2.148376, 41.406989], [2.148497, 41.406892], [2.148385, 41.406812], [2.148914, 41.406549], [2.148965, 41.406584], [2.148791, 41.406726], [2.149027, 41.40689], [2.150067, 41.405995], [2.149971, 41.405509], [2.150374, 41.404367], [2.150326, 41.40414], [2.150028, 41.403781], [2.149923, 41.403208], [2.151155, 41.401492], [2.151226, 41.400492], [2.154931, 41.396777], [2.155711, 41.395571], [2.159226, 41.396461], [2.166218, 41.40171], [2.167353, 41.400855], [2.172043, 41.404369], [2.16369, 41.410724], [2.161236, 41.413568], [2.161422, 41.413757], [2.161382, 41.413936], [2.161056, 41.414176], [2.160498, 41.413924], [2.160133, 41.413963], [2.159468, 41.414271], [2.158948, 41.414635], [2.158086, 41.415577], [2.157572, 41.416518], [2.157424, 41.41657], [2.157212, 41.416513], [2.156628, 41.415616], [2.155995, 41.415189], [2.155761, 41.415107], [2.155465, 41.41512], [2.155372, 41.414969], [2.155223, 41.414924], [2.154656, 41.415224], [2.15272, 41.416809], [2.151924, 41.416905], [2.151677, 41.417206], [2.151423, 41.417288], [2.151417, 41.417377], [2.15099, 41.417588], [2.150887, 41.417719], [2.150909, 41.417999], [2.15115, 41.418498], [2.151517, 41.418935], [2.151774, 41.420143], [2.149272, 41.420371], [2.149488, 41.420606], [2.149475, 41.421641], [2.147802, 41.421592], [2.146976, 41.421264], [2.145143, 41.420893], [2.144715, 41.420733], [2.144528, 41.42053], [2.143898, 41.42014], [2.142206, 41.421453], [2.141837, 41.421557], [2.140455, 41.421098], [2.14004, 41.420232], [2.137881, 41.420891], [2.137722, 41.420994], [2.137671, 41.421153], [2.137739, 41.421288], [2.138268, 41.421533], [2.13844, 41.421767], [2.13808, 41.422825], [2.13759, 41.423321], [2.137261, 41.423461], [2.136285, 41.423627]]]]}}, {"type": "Feature", "properties": {"zone_id": "Z07", "name": "Horta-Guinardó"}, "geometry": {"type": "MultiPolygon", "coordinates": [[[[2.120438, 41.422802], [2.120883, 41.421877], [2.121402, 41.421349], [2.121512, 41.421124], [2.121505, 41.420869], [2.121163, 41.42071], [2.125316, 41.419007], [2.128928, 41.417422], [2.128616, 41.41781], [2.12791, 41.418288], [2.127908, 41.418417], [2.128168, 41.41866], [2.128167, 41.418763], [2.128024, 41.418948], [2.127462, 41.41925], [2.127453, 41.419375], [2.127582, 41.419497], [2.128062, 41.419728], [2.128405, 41.419707], [2.12879, 41.419933], [2.129071, 41.419597], [2.129524, 41.419513], [2.129764, 41.419678], [2.129932, 41.420018], [2.130104, 41.420078], [2.130583, 41.419916], [2.130863, 41.419459], [2.131092, 41.419392], [2.132068, 41.419801], [2.132203, 41.419934], [2.131301, 41.421053], [2.131265, 41.421332], [2.130477, 41.421961], [2.12995, 41.422566], [2.13058, 41.42275], [2.131903, 41.422527], [2.132814, 41.422587], [2.133554, 41.422335], [2.134706, 41.42213], [2.134777, 41.422164], [2.134281, 41.422577], [2.134214, 41.42278], [2.134567, 41.423511], [2.134648, 41.42361], [2.134783, 41.423576], [2.135343, 41.424247], [2.135361, 41.424377], [2.135048, 41.424704], [2.135106, 41.42488], [2.13598, 41.424545], [2.136148, 41.424256], [2.136157, 41.42377], [2.136285, 41.423627], [2.137261, 41.423461], [2.13759, 41.423321], [2.13808, 41.422825], [2.13844, 41.421767], [2.138268, 41.421533], [2.137739, 41.421288], [2.137671, 41.421153], [2.137722, 41.420994], [2.137881, 41.420891], [2.14004, 41.420232], [2.140455, 41.421098], [2.141837, 41.421557], [2.142206, 41.421453], [2.143898, 41.42014], [2.144528, 41.42053], [2.144715, 41.420733], [2.145143, 41.420893], [2.146976, 41.421264], [2.147802, 41.421592], [2.149475, 41.421641], [2.149488, 41.420606], [2.149272, 41.420371], [2.151774, 41.420143], [2.151517, 41.418935], [2.15115, 41.418498], [2.150909, 41.417999], [2.150887, 41.417719], [2.15099, 41.417588], [2.151417, 41.417377], [2.151423, 41.417288], [2.151677, 41.417206], [2.151924, 41.416905], [2.15272, 41.416809], [2.154656, 41.415224], [2.155223, 41.414924], [2.155372, 41.414969], [2.155465, 41.41512], [2.155761, 41.415107], [2.155995, 41.415189], [2.156628, 41.415616], [2.157212, 41.416513], [2.157424, 41.41657], [2.157572, 41.416518], [2.158349, 41.415229], [2.159193, 41.414447], [2.15978, 41.414106], [2.160277, 41.413927], [2.160498, 41.413924], [2.161056, 41.414176], [2.161382, 41.413936], [2.161422, 41.413757], [2.161236, 41.413568], [2.16369, 41.410724], [2.168659, 41.406929], [2.180484, 41.415832], [2.180395, 41.417482], [2.180491, 41.418334], [2.180828, 41.419836], [2.180746, 41.420355], [2.176064, 41.42545], [2.169981, 41.427179], [2.167429, 41.427549], [2.16422, 41.427911], [2.163632, 41.428097], [2.166148, 41.429626], [2.164311, 41.430766], [2.163645, 41.431388], [2.163231, 41.431977], [2.163111, 41.43288], [2.163581, 41.434563], [2.164265, 41.436285], [2.163168, 41.436588], [2.16352, 41.437104], [2.16313, 41.437365], [2.16366, 41.43786], [2.16244, 41.438585], [2.161664, 41.439286], [2.1618, 41.439664], [2.161561, 41.43995], [2.16155, 41.440271], [2.16189, 41.440665], [2.16237, 41.440793], [2.162401, 41.441325], [2.161713, 41.441631], [2.161635, 41.441565], [2.160126, 41.442202], [2.159968, 41.442381], [2.159698, 41.442123], [2.159187, 41.442376], [2.158698, 41.443011], [2.158408, 41.443855], [2.157991, 41.444205], [2.15795, 41.444528], [2.157707, 41.444835], [2.157472, 41.445021], [2.156993, 41.445108], [2.156481, 41.445413], [2.156105, 41.445544], [2.155782, 41.445559], [2.155708, 41.445652], [2.155835, 41.445765], [2.157083, 41.445962], [2.157253, 41.446052], [2.157592, 41.446713], [2.157469, 41.447086], [2.157117, 41.447279], [2.157042, 41.447433], [2.157493, 41.44747], [2.15794, 41.447712], [2.158639, 41.448406], [2.159425, 41.449395], [2.159478, 41.449961], [2.159109, 41.450518], [2.158967, 41.450517], [2.158504, 41.450227], [2.157967, 41.449803], [2.157445, 41.449592], [2.156579, 41.449914], [2.156019, 41.449954], [2.154408, 41.44941], [2.153432, 41.448651], [2.153269, 41.447789], [2.152757, 41.44761], [2.151971, 41.447027], [2.15075, 41.4473], [2.150004, 41.447176], [2.14953, 41.447224], [2.149055, 41.446953], [2.148424, 41.446756], [2.147582, 41.446947], [2.146615, 41.447554], [2.145427, 41.447781], [2.145038, 41.447955], [2.143506, 41.447617], [2.143028, 41.447449], [2.142348, 41.44698], [2.142033, 41.446939], [2.141652, 41.446985], [2.140817, 41.447445], [2.140197, 41.4475], [2.139865, 41.447619], [2.138721, 41.447752], [2.137812, 41.447956], [2.137107, 41.447618], [2.136629, 41.447744], [2.135737, 41.447433], [2.134913, 41.447594], [2.134731, 41.447561], [2.134584, 41.447091], [2.13384, 41.446039], [2.133493, 41.445704], [2.132908, 41.445428], [2.132907, 41.444942], [2.132782, 41.444605], [2.132113, 41.444174], [2.130719, 41.443829], [2.130555, 41.443558], [2.129944, 41.44303], [2.129945, 41.442474], [2.1295, 41.441913], [2.129512, 41.441744], [2.129956, 41.441086], [2.129928, 41.44067], [2.129351, 41.440085], [2.129474, 41.43873], [2.129237, 41.437663], [2.128614, 41.43679], [2.128601, 41.436598], [2.1288, 41.436208], [2.128844, 41.435178], [2.128331, 41.43406], [2.128301, 41.433522], [2.127537, 41.43314], [2.127266, 41.432632], [2.126521, 41.431847], [2.126424, 41.431675], [2.126527, 41.43161], [2.12411, 41.429614], [2.122658, 41.428762], [2.122759, 41.428664], [2.123082, 41.428694], [2.121997, 41.426528], [2.121215, 41.425783], [2.121347, 41.42562], [2.121311, 41.425387], [2.120468, 41.42394], [2.120545, 41.423114], [2.120438, 41.422802]]]]}}, {"type": "Feature", "properties": {"zone_id": "Z08", "name": "Nou Barris i Sant Andreu"}, "geometry": {"type": "MultiPolygon", "coordinates": [[[[2.155707, 41.445689], [2.155782, 41.445559], [2.15626, 41.445497], [2.156993, 41.445108], [2.157472, 41.445021], [2.157707, 41.444835], [2.15795, 41.444528], [2.157991, 41.444205], [2.158408, 41.443855], [2.158698, 41.443011], [2.159187, 41.442376], [2.159698, 41.442123], [2.159968, 41.442381], [2.160126, 41.442202], [2.161635, 41.441565], [2.161713, 41.441631], [2.162401, 41.441325], [2.16237, 41.440793], [2.16189, 41.440665], [2.16155, 41.440271], [2.161561, 41.43995], [2.1618, 41.439664], [2.161664, 41.439286], [2.16244, 41.438585], [2.16366, 41.43786], [2.16313, 41.437365], [2.16352, 41.437104], [2.163168, 41.436588], [2.164265, 41.436285], [2.163581, 41.434563], [2.163111, 41.43288], [2.163231, 41.431977], [2.163645, 41.431388], [2.164311, 41.430766], [2.166148, 41.429626], [2.163632, 41.428097], [2.16422, 41.427911], [2.167429, 41.427549], [2.169981, 41.427179], [2.176064, 41.42545], [2.177303, 41.425488], [2.177221, 41.427342], [2.177292, 41.428174], [2.179443, 41.427836], [2.184298, 41.427644], [2.184374, 41.42835], [2.182787, 41.430637], [2.182672, 41.431205], [2.182752, 41.431747], [2.185495, 41.439899], [2.186452, 41.443167], [2.188337, 41.448858], [2.188799, 41.450688], [2.188912, 41.453246], [2.188775, 41.454844], [2.188557, 41.455651], [2.188123, 41.45663], [2.187891, 41.456907], [2.188791, 41.457304], [2.188071, 41.458318], [2.187636, 41.459644], [2.187401, 41.462082], [2.187641, 41.46212], [2.187061, 41.467717], [2.185382, 41.467795], [2.184583, 41.468197], [2.183785, 41.468296], [2.180693, 41.467673], [2.179413, 41.467594], [2.178695, 41.468184], [2.17861, 41.467421], [2.178936, 41.466535], [2.179844, 41.465506], [2.180712, 41.46494], [2.177465, 41.464161], [2.176251, 41.46399], [2.17573, 41.463733], [2.174916, 41.463852], [2.174878, 41.463699], [2.174524, 41.463484], [2.174352, 41.463484], [2.174355, 41.462972], [2.174169, 41.462637], [2.173996, 41.462539], [2.17376, 41.462535], [2.172646, 41.461869], [2.171749, 41.461205], [2.171405, 41.460822], [2.171224, 41.461213], [2.170019, 41.460844], [2.170012, 41.460754], [2.169287, 41.46063], [2.168318, 41.460285], [2.168263, 41.460697], [2.167325, 41.46068], [2.167242, 41.460472], [2.167525, 41.459931], [2.167166, 41.4598], [2.166934, 41.459492], [2.166921, 41.459175], [2.166162, 41.458465], [2.165741, 41.458373], [2.165623, 41.458029], [2.165317, 41.45769], [2.164229, 41.456045], [2.164169, 41.455794], [2.164407, 41.455116], [2.164924, 41.454771], [2.164956, 41.454334], [2.164797, 41.453772], [2.164901, 41.453163], [2.164801, 41.452675], [2.165333, 41.452249], [2.165568, 41.451795], [2.165556, 41.451482], [2.164757, 41.451061], [2.164359, 41.450569], [2.16417, 41.449866], [2.164038, 41.449786], [2.162787, 41.449789], [2.16186, 41.450258], [2.160211, 41.450333], [2.15956, 41.450521], [2.159109, 41.450518], [2.159478, 41.449961], [2.159425, 41.449395], [2.158639, 41.448406], [2.15794, 41.447712], [2.157493, 41.44747], [2.157042, 41.447433], [2.157117, 41.447279], [2.157469, 41.447086], [2.157592, 41.446713], [2.157253, 41.446052], [2.157083, 41.445962], [2.155835, 41.445765], [2.155707, 41.445689]]], [[[2.187641, 41.46212], [2.187401, 41.462082], [2.187719, 41.459233], [2.188071, 41.458318], [2.188791, 41.457304], [2.187891, 41.456907], [2.188123, 41.45663], [2.188557, 41.455651], [2.188775, 41.454844], [2.188912, 41.453246], [2.188799, 41.450688], [2.188337, 41.448858], [2.186452, 41.443167], [2.185495, 41.439899], [2.182752, 41.431747], [2.182672, 41.431205], [2.182787, 41.430637], [2.184374, 41.42835], [2.184298, 41.427644], [2.179443, 41.427836], [2.177292, 41.428174], [2.177221, 41.427342], [2.177303, 41.425488], [2.176064, 41.42545], [2.180746, 41.420355], [2.180828, 41.419836], [2.180491, 41.418334], [2.180395, 41.417482], [2.180484, 41.415832], [2.183361, 41.41795], [2.189034, 41.413678], [2.190977, 41.415168], [2.191109, 41.415543], [2.192414, 41.414545], [2.193543, 41.415397], [2.193234, 41.416315], [2.193293, 41.416802], [2.195219, 41.422391], [2.195487, 41.422344], [2.195604, 41.42265], [2.19589, 41.424424], [2.196548, 41.426587], [2.196425, 41.426662], [2.197215, 41.428748], [2.197571, 41.42921], [2.198399, 41.429821], [2.198943, 41.430032], [2.199901, 41.430162], [2.200686, 41.430159], [2.201527, 41.429993], [2.202984, 41.429479], [2.207024, 41.427584], [2.207352, 41.427977], [2.207279, 41.428012], [2.207361, 41.428107], [2.207275, 41.428787], [2.207139, 41.428854], [2.207324, 41.429068], [2.206921, 41.429913], [2.207008, 41.430014], [2.20654, 41.430242], [2.206797, 41.430537], [2.206673, 41.430581], [2.206483, 41.431081], [2.206171, 41.432271], [2.206471, 41.432641], [2.208041, 41.433131], [2.209545, 41.433236], [2.210759, 41.43343], [2.210167, 41.434518], [2.209627, 41.435759], [2.208401, 41.439996], [2.207991, 41.441096], [2.207322, 41.442373], [2.206298, 41.443808], [2.203211, 41.447103], [2.199181, 41.451067], [2.197713, 41.452276], [2.191311, 41.456851], [2.189787, 41.458219], [2.189014, 41.459039], [2.188328, 41.460045], [2.187873, 41.461079], [2.187641, 41.46212]]]]}}, {"type": "Feature", "properties": {"zone_id": "Z09", "name": "Sant Martí"}, "geometry": {"type": "MultiPolygon", "coordinates": [[[[2.207364, 41.427111], [2.206838, 41.427361], [2.207024, 41.427584], [2.202984, 41.429479], [2.201527, 41.429993], [2.200686, 41.430159], [2.199901, 41.430162], [2.198943, 41.430032], [2.198399, 41.429821], [2.197571, 41.42921], [2.19732, 41.428937], [2.196623, 41.42728], [2.196425, 41.426662], [2.196548, 41.426587], [2.19589, 41.424424], [2.195604, 41.42265], [2.195487, 41.422344], [2.195219, 41.422391], [2.193247, 41.41664], [2.19329, 41.416056], [2.193543, 41.415397], [2.193358, 41.415252], [2.192414, 41.414545], [2.191109, 41.415543], [2.190977, 41.415168], [2.189034, 41.413678], [2.183361, 41.41795], [2.175468, 41.412036], [2.185669, 41.404306], [2.184527, 41.403452], [2.186895, 41.401656], [2.186865, 41.394968], [2.186664, 41.394831], [2.186732, 41.394639], [2.182381, 41.39142], [2.184586, 41.389756], [2.18677, 41.391393], [2.193573, 41.38624], [2.195755, 41.387852], [2.195949, 41.387538], [2.19642, 41.387466], [2.199722, 41.384987], [2.199986, 41.385192], [2.199762, 41.385324], [2.199837, 41.385383], [2.199588, 41.385701], [2.199422, 41.38558], [2.199288, 41.38568], [2.199489, 41.385832], [2.198313, 41.386718], [2.19843, 41.386808], [2.198312, 41.386895], [2.200221, 41.388332], [2.200341, 41.388244], [2.200457, 41.388333], [2.201964, 41.387198], [2.200197, 41.385868], [2.200836, 41.385385], [2.201125, 41.3856], [2.200985, 41.385704], [2.201036, 41.385742], [2.201174, 41.385639], [2.201409, 41.385815], [2.201204, 41.385973], [2.202097, 41.386644], [2.202148, 41.386606], [2.202138, 41.386674], [2.202397, 41.386871], [2.202603, 41.386715], [2.202515, 41.386648], [2.202622, 41.386701], [2.202745, 41.386608], [2.202642, 41.386471], [2.202551, 41.386513], [2.202515, 41.386465], [2.202607, 41.386425], [2.201796, 41.385506], [2.20075, 41.384582], [2.200034, 41.384106], [2.199896, 41.384151], [2.198867, 41.383669], [2.199008, 41.383503], [2.199418, 41.383361], [2.199776, 41.383352], [2.200544, 41.383735], [2.200669, 41.383858], [2.200529, 41.383984], [2.199779, 41.383599], [2.199502, 41.383591], [2.19951, 41.383655], [2.19973, 41.383663], [2.200626, 41.384158], [2.201862, 41.385173], [2.202784, 41.386173], [2.203621, 41.387417], [2.203055, 41.38784], [2.20326, 41.387931], [2.203427, 41.3881], [2.20339, 41.388159], [2.202917, 41.38783], [2.202833, 41.387654], [2.201492, 41.388654], [2.201666, 41.389166], [2.202075, 41.389795], [2.202996, 41.390498], [2.203546, 41.390784], [2.204421, 41.391081], [2.204747, 41.391111], [2.205759, 41.390392], [2.205891, 41.390491], [2.204567, 41.391493], [2.204823, 41.391683], [2.206142, 41.390679], [2.206271, 41.390775], [2.205729, 41.391185], [2.205475, 41.391444], [2.20551, 41.391548], [2.20703, 41.393618], [2.208203, 41.394795], [2.208904, 41.395247], [2.210065, 41.395646], [2.211318, 41.394742], [2.211448, 41.394839], [2.210912, 41.395245], [2.211127, 41.395407], [2.211252, 41.395311], [2.211309, 41.395353], [2.211718, 41.395038], [2.211849, 41.395134], [2.210735, 41.396027], [2.211112, 41.396777], [2.212119, 41.397954], [2.212802, 41.398583], [2.213636, 41.399139], [2.214399, 41.399352], [2.214996, 41.398944], [2.21515, 41.398744], [2.215588, 41.398595], [2.215337, 41.398856], [2.215421, 41.398925], [2.215673, 41.398797], [2.215639, 41.398984], [2.214562, 41.399744], [2.215295, 41.401049], [2.216148, 41.401951], [2.216614, 41.40228], [2.217341, 41.402593], [2.218214, 41.402031], [2.218778, 41.401541], [2.218943, 41.401509], [2.218348, 41.402095], [2.217151, 41.40294], [2.217565, 41.403529], [2.218494, 41.404383], [2.219216, 41.40478], [2.220307, 41.405153], [2.221824, 41.404017], [2.222153, 41.403876], [2.22195, 41.403547], [2.222024, 41.40349], [2.222152, 41.403525], [2.222462, 41.403805], [2.222935, 41.404626], [2.223385, 41.405146], [2.223387, 41.405287], [2.223242, 41.405285], [2.222861, 41.40498], [2.222372, 41.404198], [2.222175, 41.404078], [2.22172, 41.40436], [2.221746, 41.404485], [2.221525, 41.404699], [2.221455, 41.404659], [2.220971, 41.40514], [2.221521, 41.405534], [2.221817, 41.405315], [2.221766, 41.405112], [2.221923, 41.405075], [2.222269, 41.405343], [2.222422, 41.40531], [2.22268, 41.405393], [2.222907, 41.405742], [2.223433, 41.406179], [2.223858, 41.40624], [2.223935, 41.40632], [2.224328, 41.406167], [2.22449, 41.40623], [2.224686, 41.40647], [2.225111, 41.40632], [2.2255, 41.405955], [2.225717, 41.405967], [2.225806, 41.406123], [2.225691, 41.406329], [2.224779, 41.406937], [2.225024, 41.407336], [2.225472, 41.407016], [2.225428, 41.406962], [2.225655, 41.406733], [2.225883, 41.406611], [2.226095, 41.406622], [2.226208, 41.406818], [2.226036, 41.406941], [2.226163, 41.407111], [2.226161, 41.407213], [2.226053, 41.407182], [2.22611, 41.407254], [2.226228, 41.407359], [2.226475, 41.407096], [2.226487, 41.407692], [2.226741, 41.407876], [2.226807, 41.407629], [2.226926, 41.407628], [2.227021, 41.407889], [2.226917, 41.408114], [2.227019, 41.408195], [2.227167, 41.408083], [2.227425, 41.408094], [2.228018, 41.409043], [2.227939, 41.409543], [2.227886, 41.409616], [2.227712, 41.409614], [2.227503, 41.409409], [2.227369, 41.408986], [2.227244, 41.408948], [2.22698, 41.408411], [2.227053, 41.408275], [2.226891, 41.408252], [2.226781, 41.407986], [2.226441, 41.407767], [2.226275, 41.40743], [2.226097, 41.407381], [2.225972, 41.407146], [2.225836, 41.407088], [2.225427, 41.40732], [2.225828, 41.407943], [2.225838, 41.407761], [2.225938, 41.407744], [2.226079, 41.407888], [2.225897, 41.408045], [2.226258, 41.408513], [2.226116, 41.408537], [2.226211, 41.408548], [2.226144, 41.408576], [2.226357, 41.408904], [2.226411, 41.408648], [2.226339, 41.408646], [2.226257, 41.408438], [2.226389, 41.408398], [2.226533, 41.408577], [2.226417, 41.408896], [2.226792, 41.409362], [2.226747, 41.409657], [2.227213, 41.410378], [2.223251, 41.411987], [2.22288, 41.412161], [2.222795, 41.412317], [2.220976, 41.413078], [2.221368, 41.413514], [2.220884, 41.413774], [2.220443, 41.414167], [2.218194, 41.417294], [2.217792, 41.416989], [2.216093, 41.418267], [2.216321, 41.418437], [2.214021, 41.420173], [2.213787, 41.42], [2.212589, 41.420898], [2.212477, 41.420814], [2.211279, 41.421671], [2.211815, 41.422072], [2.211323, 41.422565], [2.211131, 41.423212], [2.210949, 41.423469], [2.210604, 41.423759], [2.209599, 41.424344], [2.209372, 41.424723], [2.209257, 41.425187], [2.209087, 41.425345], [2.208659, 41.425023], [2.208435, 41.425176], [2.207976, 41.425023], [2.20754, 41.425002], [2.206766, 41.425422], [2.206067, 41.425613], [2.206353, 41.426049], [2.206463, 41.426401], [2.206761, 41.426752], [2.206976, 41.42665], [2.207364, 41.427111]]]]}}, {"type": "Feature", "properties": {"zone_id": "Z10", "name": "L'Hospitalet de Llobregat"}, "geometry": {"type": "MultiPolygon", "coordinates": [[[[2.105, 41.37934], [2.10283, 41.38058], [2.10332, 41.37898], [2.10212, 41.37772], [2.10034, 41.37655], [2.10026, 41.37642], [2.10123, 41.37457], [2.10129, 41.37396], [2.09873, 41.37023], [2.09928, 41.36866], [2.09398, 41.36712], [2.09243, 41.368], [2.09192, 41.36858], [2.09178, 41.36895], [2.09129, 41.36911], [2.08786, 41.36903], [2.08678, 41.36678], [2.08705, 41.36453], [2.08744, 41.36421], [2.08936, 41.36361], [2.08918, 41.36301], [2.09045, 41.36158], [2.09146, 41.36092], [2.09313, 41.35927], [2.09359, 41.35852], [2.0956, 41.35904], [2.09586, 41.35856], [2.09552, 41.35844], [2.09717, 41.35586], [2.09988, 41.35192], [2.09724, 41.35076], [2.09508, 41.34965], [2.0923, 41.34807], [2.09212, 41.34642], [2.09165, 41.34477], [2.09083, 41.34309], [2.08952, 41.3413], [2.09313, 41.34019], [2.09444, 41.3396], [2.09856, 41.33738], [2.09985, 41.33662], [2.10053, 41.33604], [2.10137, 41.33633], [2.10333, 41.33647], [2.1369, 41.34845], [2.13743, 41.34888], [2.13526, 41.35111], [2.13404, 41.35267], [2.13284, 41.3545], [2.13233, 41.35571], [2.13278, 41.35595], [2.1331, 41.35688], [2.13332, 41.3599], [2.13472, 41.36111], [2.1355, 41.36209], [2.13303, 41.36444], [2.13247, 41.36611], [2.13173, 41.36779], [2.13071, 41.36947], [2.12938, 41.37064], [2.12886, 41.37095], [2.12783, 41.37135], [2.12476, 41.3733], [2.12288, 41.37502], [2.12206, 41.37544], [2.12161, 41.37595], [2.12146, 41.37626], [2.12154, 41.37707], [2.12144, 41.37799], [2.1178, 41.37579], [2.1096, 41.37597], [2.10815, 41.37773], [2.1069, 41.37877], [2.10554, 41.37927], [2.105, 41.37934]]]]}}, {"type": "Feature", "properties": {"zone_id": "Z11", "name": "El Prat de Llobregat"}, "geometry": {"type": "MultiPolygon", "coordinates": [[[[2.07441, 41.34773], [2.07343, 41.34767], [2.073, 41.3475], [2.07273, 41.34728], [2.07231, 41.34662], [2.07223, 41.34635], [2.07217, 41.34597], [2.07227, 41.34517], [2.07174, 41.34439], [2.07124, 41.34417], [2.07033, 41.34392], [2.06943, 41.34426], [2.06877, 41.34465], [2.06871, 41.3439], [2.0701, 41.34078], [2.07188, 41.33891], [2.07243, 41.33896], [2.07323, 41.33921], [2.07265, 41.34012], [2.0756, 41.34139], [2.07578, 41.34224], [2.07659, 41.34236], [2.07849, 41.33969], [2.07643, 41.33878], [2.07568, 41.33836], [2.07498, 41.33789], [2.07326, 41.33641], [2.0736, 41.33606], [2.07201, 41.33508], [2.07176, 41.33534], [2.07104, 41.3348], [2.07163, 41.33368], [2.072, 41.33226], [2.0715, 41.33156], [2.06951, 41.33051], [2.06726, 41.32912], [2.06911, 41.32734], [2.07102, 41.3253], [2.07283, 41.32373], [2.07043, 41.32251], [2.07051, 41.32062], [2.07101, 41.31972], [2.06839, 41.3187], [2.06329, 41.3163], [2.06295, 41.31562], [2.06371, 41.31472], [2.06482, 41.31304], [2.06564, 41.31158], [2.06697, 41.30736], [2.06532, 41.3067], [2.06261, 41.30638], [2.05875, 41.30559], [2.05949, 41.30402], [2.05983, 41.30302], [2.05736, 41.3025], [2.05943, 41.29784], [2.0617, 41.29233], [2.06604, 41.29039], [2.06756, 41.2883], [2.06786, 41.28751], [2.06716, 41.28749], [2.06897, 41.28658], [2.07039, 41.285], [2.07018, 41.28228], [2.07474, 41.27654], [2.07485, 41.27675], [2.08217, 41.27912], [2.08256, 41.27933], [2.0834, 41.27941], [2.08582, 41.28026], [2.0881, 41.28089], [2.09292, 41.28241], [2.09511, 41.28326], [2.09656, 41.28367], [2.09903, 41.28457], [2.10346, 41.28636], [2.1065, 41.28736], [2.10752, 41.28763], [2.10858, 41.28819], [2.11112, 41.28904], [2.11413, 41.29033], [2.11585, 41.29131], [2.11897, 41.2929], [2.12272, 41.29515], [2.12449, 41.29575], [2.12538, 41.29563], [2.12614, 41.29609], [2.12791, 41.29687], [2.1289, 41.29722], [2.12989, 41.29746], [2.13195, 41.29772], [2.13343, 41.29777], [2.13604, 41.29765], [2.13654, 41.29704], [2.13726, 41.29556], [2.13761, 41.29423], [2.13767, 41.29322], [2.13773, 41.29313], [2.13791, 41.29311], [2.13798, 41.29318], [2.13799, 41.29379], [2.13773, 41.29524], [2.13725, 41.29639], [2.1365, 41.29755], [2.13706, 41.3006], [2.14234, 41.29656], [2.14294, 41.29622], [2.14424, 41.29568], [2.14624, 41.29515], [2.14794, 41.29499], [2.14964, 41.29506], [2.1517, 41.29547], [2.15315, 41.29607], [2.15326, 41.29625], [2.15421, 41.29682], [2.15512, 41.29753], [2.16632, 41.30871], [2.1664, 41.30867], [2.16668, 41.30892], [2.16715, 41.30964], [2.16748, 41.31046], [2.16758, 41.31094], [2.16752, 41.3119], [2.16585, 41.31709], [2.16573, 41.31739], [2.16555, 41.31743], [2.16542, 41.31784], [2.16514, 41.31778], [2.1666, 41.31361], [2.16718, 41.31164], [2.16709, 41.31047], [2.16682, 41.30977], [2.16631, 41.309], [2.15505, 41.29781], [2.15409, 41.29703], [2.15259, 41.29623], [2.15145, 41.29779], [2.1499, 41.29732], [2.14815, 41.29713], [2.14711, 41.29721], [2.14619, 41.29738], [2.14441, 41.29801], [2.14274, 41.29929], [2.14514, 41.30178], [2.14506, 41.30193], [2.14428, 41.30231], [2.14469, 41.30279], [2.14493, 41.30266], [2.14509, 41.30284], [2.14477, 41.30301], [2.14412, 41.30241], [2.14296, 41.30306], [2.14287, 41.30302], [2.14259, 41.30312], [2.14244, 41.30339], [2.14236, 41.30425], [2.14279, 41.30472], [2.14323, 41.30482], [2.14398, 41.30441], [2.14388, 41.3043], [2.144, 41.30424], [2.15495, 41.31523], [2.15478, 41.31532], [2.1545, 41.31528], [2.15401, 41.31569], [2.15291, 41.31633], [2.15643, 41.3199], [2.15656, 41.32028], [2.15636, 41.32061], [2.15384, 41.322], [2.15352, 41.32199], [2.15212, 41.32169], [2.15207, 41.3218], [2.15243, 41.32184], [2.15264, 41.32205], [2.15259, 41.32254], [2.15271, 41.32281], [2.15239, 41.32292], [2.15245, 41.32272], [2.15222, 41.3226], [2.15203, 41.32274], [2.15225, 41.32297], [2.15173, 41.32315], [2.15082, 41.32167], [2.14986, 41.32068], [2.14673, 41.32076], [2.14127, 41.32109], [2.13977, 41.32112], [2.13071, 41.32077], [2.12852, 41.32096], [2.12314, 41.32181], [2.1189, 41.32273], [2.11704, 41.32332], [2.11565, 41.32389], [2.11404, 41.32488], [2.1123, 41.32612], [2.10875, 41.33073], [2.10765, 41.33174], [2.10479, 41.33393], [2.10277, 41.3351], [2.10053, 41.33604], [2.09985, 41.33662], [2.09856, 41.33738], [2.09444, 41.3396], [2.09313, 41.34019], [2.08952, 41.3413], [2.08612, 41.34393], [2.08407, 41.34608], [2.08351, 41.34648], [2.08245, 41.34677], [2.08159, 41.34662], [2.08094, 41.3464], [2.07958, 41.34629], [2.07759, 41.34682], [2.07572, 41.34749], [2.07441, 41.34773]], [[2.15258, 41.32005], [2.15336, 41.32091], [2.15334, 41.32099], [2.1522, 41.32148], [2.15214, 41.32163], [2.15358, 41.32194], [2.15405, 41.32186], [2.15618, 41.32067], [2.15642, 41.32046], [2.15648, 41.32028], [2.15637, 41.31994], [2.15286, 41.31639], [2.15255, 41.31643], [2.15047, 41.31759], [2.15061, 41.31785], [2.15258, 41.32005]]]]}}, {"type": "Feature", "properties": {"zone_id": "Z12", "name": "Cornellà de Llobregat"}, "geometry": {"type": "MultiPolygon", "coordinates": [[[[2.08049, 41.36726], [2.07905, 41.36984], [2.07716, 41.36864], [2.07256, 41.36596], [2.07129, 41.36554], [2.0681, 41.36426], [2.0652, 41.36257], [2.06345, 41.36343], [2.06211, 41.36448], [2.06113, 41.36488], [2.05879, 41.36349], [2.06009, 41.36223], [2.05829, 41.36102], [2.05911, 41.35926], [2.05486, 41.35636], [2.05761, 41.35417], [2.0544, 41.35177], [2.05017, 41.34751], [2.05316, 41.34802], [2.05447, 41.34818], [2.05588, 41.34825], [2.05797, 41.34817], [2.06004, 41.34787], [2.06115, 41.34766], [2.06363, 41.34687], [2.06877, 41.34465], [2.07006, 41.34398], [2.07033, 41.34392], [2.07124, 41.34417], [2.07174, 41.34439], [2.07227, 41.34517], [2.07217, 41.34597], [2.07231, 41.34662], [2.07273, 41.34728], [2.073, 41.3475], [2.07343, 41.34767], [2.07441, 41.34773], [2.07524, 41.3476], [2.0766, 41.3472], [2.07759, 41.34682], [2.07958, 41.34629], [2.08094, 41.3464], [2.08159, 41.34662], [2.08245, 41.34677], [2.08332, 41.34656], [2.08379, 41.34631], [2.08612, 41.34393], [2.08952, 41.3413], [2.09083, 41.34309], [2.09165, 41.34477], [2.09212, 41.34642], [2.0923, 41.34807], [2.09508, 41.34965], [2.09724, 41.35076], [2.09988, 41.35192], [2.09717, 41.35586], [2.09552, 41.35844], [2.09586, 41.35856], [2.0956, 41.35904], [2.09359, 41.35852], [2.09313, 41.35927], [2.09146, 41.36092], [2.09045, 41.36158], [2.08918, 41.36301], [2.08936, 41.36361], [2.08744, 41.36421], [2.08705, 41.36453], [2.08678, 41.36678], [2.08639, 41.36662], [2.08538, 41.36595], [2.08355, 41.36592], [2.08153, 41.36786], [2.08049, 41.36726]]]]}}, {"type": "Feature", "properties": {"zone_id": "Z13", "name": "Esplugues de Llobregat"}, "geometry": {"type": "MultiPolygon", "coordinates": [[[[2.09683, 41.39436], [2.09388, 41.39394], [2.09212, 41.39253], [2.09, 41.39021], [2.08852, 41.38978], [2.08824, 41.38981], [2.08718, 41.38965], [2.08647, 41.38938], [2.08548, 41.38887], [2.08419, 41.38774], [2.08392, 41.38698], [2.08365, 41.38487], [2.08287, 41.38281], [2.08202, 41.38295], [2.08189, 41.38175], [2.08027, 41.38091], [2.08076, 41.3789], [2.08066, 41.37831], [2.08024, 41.37769], [2.07955, 41.37711], [2.07746, 41.3759], [2.0764, 41.37542], [2.0762, 41.37515], [2.07572, 41.37396], [2.07523, 41.3734], [2.07836, 41.37104], [2.08049, 41.36726], [2.08153, 41.36786], [2.08355, 41.36592], [2.08538, 41.36595], [2.08639, 41.36662], [2.08678, 41.36678], [2.08786, 41.36903], [2.09129, 41.36911], [2.09178, 41.36895], [2.09192, 41.36858], [2.09243, 41.368], [2.09398, 41.36712], [2.09928, 41.36866], [2.09873, 41.37023], [2.10129, 41.37396], [2.10123, 41.37457], [2.10026, 41.37642], [2.10034, 41.37655], [2.10212, 41.37772], [2.10332, 41.37898], [2.10283, 41.38058], [2.10259, 41.38069], [2.10203, 41.38122], [2.10124, 41.38293], [2.10211, 41.38757], [2.10071, 41.38826], [2.10059, 41.38841], [2.10026, 41.3891], [2.09998, 41.39027], [2.09978, 41.39146], [2.0998, 41.392], [2.09972, 41.39211], [2.09899, 41.39292], [2.09797, 41.39336], [2.09779, 41.39396], [2.09683, 41.39436]]]]}}, {"type": "Feature", "properties": {"zone_id": "Z14", "name": "Sant Boi de Llobregat"}, "geometry": {"type": "MultiPolygon", "coordinates": [[[[2.0446, 41.36148], [2.04355, 41.36224], [2.0322, 41.36125], [2.03185, 41.36107], [2.03124, 41.36049], [2.03023, 41.35908], [2.02842, 41.35851], [2.02603, 41.35729], [2.0248, 41.35682], [2.02327, 41.35688], [2.02287, 41.35712], [2.02305, 41.35787], [2.02317, 41.35937], [2.0225, 41.35931], [2.02108, 41.3598], [2.01939, 41.36022], [2.01774, 41.35875], [2.01866, 41.35779], [2.01728, 41.35519], [2.01608, 41.35458], [2.0148, 41.35496], [2.01307, 41.35581], [2.01194, 41.35689], [2.00982, 41.35671], [2.00895, 41.35674], [2.00765, 41.35713], [2.00483, 41.35667], [2.00103, 41.35654], [1.99902, 41.35613], [1.99849, 41.35625], [1.99889, 41.35603], [1.99897, 41.35582], [1.99879, 41.35482], [1.99948, 41.35209], [2.00357, 41.34811], [2.00436, 41.34778], [2.0051, 41.34736], [2.00582, 41.34606], [2.00591, 41.34501], [2.00549, 41.34442], [2.0055, 41.34299], [2.00611, 41.34294], [2.00664, 41.34281], [2.00718, 41.34252], [2.00898, 41.34003], [2.0098, 41.33952], [2.01089, 41.33774], [2.01172, 41.33773], [2.01517, 41.3374], [2.01649, 41.33641], [2.01703, 41.33593], [2.01726, 41.33533], [2.01772, 41.33478], [2.02009, 41.33313], [2.02126, 41.33256], [2.02211, 41.33192], [2.02283, 41.33069], [2.02295, 41.33058], [2.02333, 41.33048], [2.02485, 41.32876], [2.02582, 41.32812], [2.02797, 41.32636], [2.02951, 41.3248], [2.03007, 41.32406], [2.03054, 41.3236], [2.03175, 41.32261], [2.03192, 41.32273], [2.0329, 41.322], [2.03311, 41.32163], [2.03308, 41.32141], [2.03436, 41.32083], [2.03626, 41.31927], [2.03838, 41.317], [2.04041, 41.315], [2.04429, 41.31174], [2.04436, 41.31166], [2.04427, 41.31123], [2.04583, 41.30931], [2.04661, 41.30911], [2.04718, 41.30885], [2.04766, 41.3082], [2.0469, 41.30789], [2.04935, 41.30495], [2.05066, 41.30436], [2.05591, 41.29574], [2.05659, 41.2947], [2.05901, 41.29151], [2.06716, 41.28749], [2.06786, 41.28751], [2.06756, 41.2883], [2.06604, 41.29039], [2.0617, 41.29233], [2.05943, 41.29784], [2.05736, 41.3025], [2.05983, 41.30302], [2.05949, 41.30402], [2.05875, 41.30559], [2.06261, 41.30638], [2.06532, 41.3067], [2.06697, 41.30736], [2.06564, 41.31158], [2.06482, 41.31304], [2.06371, 41.31472], [2.06295, 41.31562], [2.06329, 41.3163], [2.06839, 41.3187], [2.07101, 41.31972], [2.07051, 41.32062], [2.07043, 41.32251], [2.07283, 41.32373], [2.07102, 41.3253], [2.06911, 41.32734], [2.06726, 41.32912], [2.06951, 41.33051], [2.0715, 41.33156], [2.072, 41.33226], [2.07163, 41.33368], [2.07104, 41.3348], [2.07176, 41.33534], [2.07201, 41.33508], [2.0736, 41.33606], [2.07326, 41.33641], [2.07498, 41.33789], [2.07568, 41.33836], [2.07643, 41.33878], [2.07849, 41.33969], [2.07659, 41.34236], [2.07578, 41.34224], [2.0756, 41.34139], [2.07265, 41.34012], [2.07323, 41.33921], [2.07243, 41.33896], [2.07188, 41.33891], [2.0701, 41.34078], [2.06871, 41.3439], [2.06877, 41.34465], [2.06363, 41.34687], [2.06115, 41.34766], [2.05797, 41.34817], [2.05588, 41.34825], [2.05447, 41.34818], [2.05316, 41.34802], [2.05017, 41.34751], [2.04809, 41.34779], [2.04728, 41.34806], [2.04612, 41.34872], [2.04557, 41.34918], [2.04535, 41.34956], [2.04534, 41.34984], [2.04605, 41.35168], [2.04613, 41.35226], [2.0459, 41.35404], [2.04545, 41.3541], [2.04481, 41.35376], [2.03994, 41.35002], [2.03909, 41.35047], [2.03762, 41.35187], [2.03718, 41.35257], [2.03641, 41.35419], [2.0364, 41.35605], [2.04295, 41.35863], [2.04784, 41.35996], [2.04824, 41.36093], [2.04829, 41.3613], [2.04817, 41.36164], [2.0446, 41.36148]]]]}}]}
